#dP2023  8 20  0  0  0.00000000      96 __u+U ITR00 FIT  IAC
## 2276      0.00000000   900.00000000 60176 0.0000000000000
+  119   C06C07C08C09C10C11C12C13C14C16C19C20C21C22C23C24C25
+        C26C27C28C29C30C32C33C34C35C36C37C38C39C40C41C42C43
+        C44C45C46E02E03E04E05E07E08E09E10E11E12E13E14E15E18
+        E19E21E24E25E26E27E30E31E33E34E36G01G02G03G04G05G06
+        G07G08G09G10G11G12G13G14G15G16G17G18G19G20G21G22G23
+        G24G25G26G27G28G29G30G31G32J02J03J04R01R02R03R04R05
+        R07R08R09R11R12R13R14R15R16R17R18R19R20R21R22R24R25
++         9  9  7  9  9  7  6  8  7  9  8  8  6  5  6  7  6
++         7  8  7  8  6  8  7  6  8  6  7  7 10  9  6  7  6
++         6  7  8  6  5  6  7  5  6  7  6  6  6  6  7  6  5
++         6  5  6  6  7  5  6  6  7  6  6  6  6  4  6  6  5
++         6  6  6  6  6  6  6  6  6  6  6  6  6  5  6  6  6
++         6  5  5  6  6  5  6  5  5  8  7 10  6  6  7  7  5
++         6  5  6  7  6  6  7  6  6  6  7  6  8  7  6  5  7
%c M  cc GPS ccc cccc cccc cccc cccc ccccc ccccc ccccc ccccc
%c cc cc ccc ccc cccc cccc cccc cccc ccccc ccccc ccccc ccccc
%f  0.0000000  0.000000000  0.00000000000  0.000000000000000
%f  0.0000000  0.000000000  0.00000000000  0.000000000000000
%i    0    0    0    0      0      0      0      0         0
%i    0    0    0    0      0      0      0      0         0
/* INFORMATION & ANALYSIS CENTER (IAC)      ULTRA-RAPID DATA
/* S/V CLOCKS ARE ALIGNED TO GNSS TIME                      
/* G:C1WC2W R:C1PC2P E:C1XC5X C:C2IC6I J:C1CC2S             
/* PCV:IGS20_2247 OL/AL:FES2004  NONE     YN ORB:CoN CLK:CoN
*  2023 08 20  6 15  0.00000000
PC06 -13829.598371  39977.166206  -1242.118255    930.579363
PC07  -3657.321941  30282.902628 -28944.143394     42.327106
PC08 -16463.662598  21749.546634  32050.598896    382.327995
PC09  -9490.263165  40155.942045  -9597.734603    270.349455
PC10   3419.537255  32726.860715 -25741.536851   -151.234620
PC11  15349.613717 -10117.658428  21069.572707    788.571494
PC12  13229.416392  11388.039791  21804.080437    885.997338
PC13  -8508.554633  23397.095110  34096.287593    337.425206
PC14  20492.603430  -1276.742769 -18864.827777    258.582212
PC16 -15743.085577  39253.049086   1991.013726    -43.235533
PC19 -13516.639634   9237.768510  22617.875822   -964.149584
PC20 -23778.235619  -5638.902359  13506.004776    348.072709
PC21  20457.845923  18396.870205   4594.160212   -952.448267
PC22   5074.029560  19610.638852  19172.140061   -343.640311
PC23   7322.189191 -18728.087676  19362.343390   -899.045595
PC24  25234.399211  -2226.241444 -11738.463780    303.119178
PC25  22198.199976 -15760.740338   6175.412493    193.248585
PC26  13846.637682  10686.632914 -21762.671252   -165.771875
PC27 -10009.858839 -19557.754964 -17224.438361    187.032093
PC28    899.460476 -27748.993869  -2863.979655    139.951557
PC29 -12044.129070  19966.623526 -15332.904485    163.293955
PC30 -15992.555908   -532.472545 -22871.254496     -3.725360
PC32 -20567.600881 -18280.176464  -4681.084020   -531.433238
PC33  13534.797308  -9281.034889 -22571.732203   -942.039247
PC34  16088.082135  -1071.255412  22762.807578    241.080594
PC35    -34.882768  27799.666301   2610.409124    564.062149
PC36 -22991.770355  14843.839699  -5407.302836   -267.442127
PC37 -12672.121269 -11610.238306  21999.800276   -810.592532
PC38 -23760.250141  23045.919216  26028.873682     99.335410
PC39 -16782.979540  37940.139934   8254.277209     -4.403021
PC40  -7248.088334  25183.063908 -32939.267547    -33.529488
PC41  -4455.231008 -19416.677552 -19500.417228   -886.440659
PC42  24105.313716   6766.911240 -12261.390158   -572.261518
PC43  12521.718689 -19212.375014  15880.265363     36.053592
PC44  10721.859880  19372.828345  16984.628907    205.614315
PC45  -6806.214935  18547.893301 -19692.611273    -16.057129
PC46 -25560.880314   3245.494201  10673.161831    -77.902571
PE02  28829.444853   -567.319752   6721.378849     56.710815
PE03  17688.256583   -685.850465 -23727.155525    -47.709319
PE04  -7149.949243  20227.746588  20395.947391   -193.371218
PE05  17989.776784  19424.361115 -13233.410065     10.656117
PE07  -7517.258223 -28138.909766  -5313.086762    -68.684958
PE08   7309.387492 -19865.404212 -20698.602984   -133.119254
PE09   7464.056209  28104.205019   5487.351516   -126.745577
PE10 -11363.079219  25412.637433  10031.109825   -557.443275
PE11  -2586.386748  22938.403578  18515.646157   2762.484299
PE12 -17669.789181  23738.983831    814.128203   -664.907983
PE13   3218.030413 -23219.276523 -18078.004056    -19.465417
PE14  -5375.431409  22049.332702 -14103.310540    316.399730
PE15  17833.725870 -23623.183983   -426.525224    -46.523862
PE18  -7250.155051 -29818.523291   2010.936222    434.168879
PE19 -18259.737525  -2305.896770  23187.326592  -1811.962755
PE21 -25103.562046 -11157.657004  11030.362711   -547.705129
PE24   5870.866699  17174.752414 -23392.556247   -275.653367
PE25  24890.773296  11327.827366 -11318.118430     -0.524957
PE26 -13696.731909  -8674.395964 -24766.648651    197.998409
PE27  -6617.120388 -17082.270984  23257.727015   -129.021701
PE30  16046.199075 -12663.779646  21409.473763   -432.382758
PE31 -15548.869590  12871.908907 -21636.164718     -3.091526
PE33 -21711.565658   9593.602556 -17679.053084     -1.360903
PE34  21795.398095 -10261.752946  17200.891318    -62.507424
PE36  13071.841002   9234.840364  24896.787609   -103.695983
PG01  13795.107924 -21910.030818  -5379.713938    167.960209
PG02  16652.221461 -20377.834184   3318.294210   -563.497688
PG03   8738.825465 -13185.770893 -21460.583480   -178.424362
PG04   2668.141769 -22288.158281 -14093.428512    131.012058
PG05 -22755.793293   5977.619333  12242.537060   -139.491250
PG06 -14640.184684  -4594.047803 -21633.010019    563.749875
PG07   -221.531137 -19912.769592  17808.758026     90.754122
PG08   9980.877488 -13446.324560  20449.189966   -138.077466
PG09  -5589.562652 -25197.674001  -6241.304449    -81.996854
PG10  21452.821951  11178.585777  11508.884568    -50.007525
PG11 -20737.146826   8374.895782 -14277.920559   -329.101987
PG12 -13465.545573  11264.958315 -20181.672524   -415.007319
PG13 -14256.016378   4466.479474  21764.277616    562.320494
PG14 -18600.081455 -13422.403340  13553.398643    159.511574
PG15  -7910.911347  15489.605284  19533.696897     69.346024
PG16  25285.560086    207.311795   8532.881680   -465.867330
PG17 -13246.095725 -20738.441376  -9415.476534    722.954198
PG18   1441.038335  18394.441446  19039.510088   -388.766676
PG19 -15453.894468 -14499.969615 -16423.538250    360.089835
PG20 -26358.130766   1569.861386   1687.287386    416.281591
PG21  17482.705258 -18585.909193   5909.436825    150.431279
PG22 -22870.697119 -11182.216603   7515.724554    138.244776
PG23  10217.263159  14747.391805  19645.883959     57.329398
PG24 -14639.368138  21878.703486     -3.957576   -295.091937
PG25   1941.040536  15814.619215 -21593.129110    463.170856
PG26  26266.555439   4322.774254  -2770.592442    232.222782
PG27  15632.058314   -326.638058  21271.745796    -25.161644
PG28  13963.565292   6558.369023 -21642.176660     74.474930
PG29   3103.129420  25540.914145  -6422.092464   -608.088300
PG30  -9017.965374 -13525.458157  21094.170159   -494.987507
PG31  19674.569290  -3684.368276 -17843.372949   -222.123283
PG32  16108.754914  17046.236266 -12475.475294   -543.748424
PJ02 -31219.492951  14539.959056 -19691.067395     -2.796678
PJ03 -24388.035754  32118.182937  -7553.800588     -1.312598
PJ04 -24930.323373  27434.214549  25944.025670     70.485607
PR01  -3277.817241 -16179.749214 -19453.722602     63.864146
PR02 -15736.600299 -19522.517665  -4446.332116    -22.510607
PR03 -19124.977085 -11118.300140  12687.572209     83.643171
PR04 -11713.855589   2872.526364  22498.437411    199.411983
PR05   1863.134909  15545.216764  20153.145060    117.625692
PR07  19013.494865  10655.132459 -13260.526775     62.827867
PR08  11668.157026  -3123.271317 -22417.302295    -72.180514
PR09  10002.163748   8435.378767 -21859.149565    137.662587
PR11  23457.487699  -8705.296039   4928.974082   -137.512074
PR12   9392.222191 -12457.808255  20215.098355     30.365432
PR13  -7808.843185  -9097.332976  22507.286041    -38.337272
PR14 -22985.497884    538.544573  11089.108938     25.102326
PR15 -23049.978966   9013.297310  -6166.631416     86.865341
PR16  -9693.350748  12392.667782 -20074.304301     17.877536
PR17 -10424.519708  -1959.777582 -23191.488260     10.387091
PR18 -12301.603983  14992.528030 -16580.904491     97.667968
PR19  -9230.986684  23590.491244  -2935.122849   -244.150040
PR20   1350.470804  19275.458018  16675.095339    -98.597105
PR21  10674.145715    743.417561  23154.244681    -31.719193
PR22  12985.461144 -15273.359438  15792.782673    116.030024
PR24  -2707.475268 -18893.335771 -16922.756051    -21.154679
PR25  10633.292191   2501.685139  23054.321207     41.763234
EOF
